[{"OBJECT_NAME":"QIANFAN-77","OBJECT_ID":"2025-046E","EPOCH":"2026-03-09T21:49:05.579904","MEAN_MOTION":13.96177726,"ECCENTRICITY":0.00149954,"INCLINATION":88.9748,"RA_OF_ASC_NODE":308.4137,"ARG_OF_PERICENTER":160.933,"MEAN_ANOMALY":199.2411,"EPHEMERIS_TYPE":0,"CLASSIFICATION_TYPE":"U","NORAD_CAT_ID":63163,"ELEMENT_SET_NO":999,"REV_AT_EPOCH":6061,"BSTAR":0.00024077108,"MEAN_MOTION_DOT":3.45e-6,"MEAN_MOTION_DDOT":0},{"OBJECT_NAME":"SL-8 DEB","OBJECT_ID":"1970-102D","EPOCH":"2026-03-09T01:31:45.628320","MEAN_MOTION":13.92300503,"ECCENTRICITY":0.00174725,"INCLINATION":74.0219,"RA_OF_ASC_NODE":292.9922,"ARG_OF_PERICENTER":264.0651,"MEAN_ANOMALY":247.2793,"EPHEMERIS_TYPE":0,"CLASSIFICATION_TYPE":"U","NORAD_CAT_ID":5225,"ELEMENT_SET_NO":999,"REV_AT_EPOCH":79314,"BSTAR":0.00037549317,"MEAN_MOTION_DOT":4.59e-6,"MEAN_MOTION_DDOT":0}]
